[{"OBJECT_NAME":"DONGPO 10","OBJECT_ID":"2022-167H","EPOCH":"2026-03-09T22:44:56.137344","MEAN_MOTION":15.322785,"ECCENTRICITY":0.00061655,"INCLINATION":97.685,"RA_OF_ASC_NODE":235.0962,"ARG_OF_PERICENTER":106.9526,"MEAN_ANOMALY":253.2392,"EPHEMERIS_TYPE":0,"CLASSIFICATION_TYPE":"U","NORAD_CAT_ID":54689,"ELEMENT_SET_NO":999,"REV_AT_EPOCH":18015,"BSTAR":0.00049390523,"MEAN_MOTION_DOT":0.00015333,"MEAN_MOTION_DDOT":0},{"OBJECT_NAME":"STARLINK-32294","OBJECT_ID":"2024-193Q","EPOCH":"2026-03-09T09:19:21.317952","MEAN_MOTION":15.30187949,"ECCENTRICITY":0.00013324,"INCLINATION":53.1599,"RA_OF_ASC_NODE":92.1815,"ARG_OF_PERICENTER":86.2301,"MEAN_ANOMALY":273.8852,"EPHEMERIS_TYPE":0,"CLASSIFICATION_TYPE":"U","NORAD_CAT_ID":61675,"ELEMENT_SET_NO":999,"REV_AT_EPOCH":7648,"BSTAR":-7.939062e-6,"MEAN_MOTION_DOT":-5.94e-6,"MEAN_MOTION_DDOT":0}]
